OBJECT_NAME,OBJECT_ID,EPOCH,MEAN_MOTION,ECCENTRICITY,INCLINATION,RA_OF_ASC_NODE,ARG_OF_PERICENTER,MEAN_ANOMALY,EPHEMERIS_TYPE,CLASSIFICATION_TYPE,NORAD_CAT_ID,ELEMENT_SET_NO,REV_AT_EPOCH,BSTAR,MEAN_MOTION_DOT,MEAN_MOTION_DDOT
INTELSAT 35E (IS-35E),2017-041A,2026-06-16T17:59:04.444800,1.00268682,.00015983,0.0182,331.6195,107.3554,61.2978,0,U,42818,999,3281,0,-.241E-5,0
COSMOS 2520,2017-046A,2026-06-16T18:21:44.924256,1.00265826,.00017037,0.0460,92.2751,8.0174,125.1632,0,U,42907,999,3239,0,.135E-5,0
TDRS 13,2017-047A,2026-06-16T19:48:21.089376,1.00271480,.001445,3.4517,2.7361,106.3621,81.6405,0,U,42915,999,3234,0,-.104E-5,0
QZS-3 (MICHIBIKI-3),2017-048A,2026-06-16T20:27:45.042624,1.00276177,.00018429,0.0688,169.8241,272.7581,256.4293,0,U,42917,999,3225,0,-.351E-5,0
AMAZONAS 5,2017-053A,2026-06-16T17:51:20.187360,1.00271034,.00020623,0.0299,328.6552,58.1833,84.9962,0,U,42934,999,3204,0,-.285E-5,0
ASIASAT 9,2017-057A,2026-06-16T18:43:38.033184,1.00264039,.00024955,0.0420,48.7885,27.1098,232.2103,0,U,42942,999,3185,0,0,0
INTELSAT 37E (IS-37E),2017-059A,2026-06-16T18:03:41.501952,1.00271710,.00023684,0.0164,21.9885,84.8898,51.0770,0,U,42950,999,3206,0,-.143E-5,0
BSAT-4A,2017-059B,2026-06-16T22:40:11.436384,1.00271496,.0003986,0.0484,34.5812,31.9594,288.5441,0,U,42951,999,3179,0,-.353E-5,0
QZS-4 (MICHIBIKI-4),2017-062A,2026-06-16T08:29:46.528800,1.00250450,.07451754,40.1083,343.4922,271.7618,273.8478,0,U,42965,999,3179,0,-.348E-5,0
SES-11 (ECHOSTAR 105),2017-063A,2026-06-17T08:04:32.164896,1.00270718,.00027121,0.0156,341.9829,89.2476,210.5453,0,U,42967,999,3172,0,-.93E-6,0
KOREASAT 5A,2017-067A,2026-06-16T19:07:21.846432,1.00270908,.00005864,0.0144,31.5430,63.6245,209.8868,0,U,42984,999,3152,0,-.361E-5,0
ALCOMSAT 1,2017-078A,2026-06-16T17:36:10.536192,1.00269338,.00022372,0.0335,265.8754,167.6091,70.7503,0,U,43039,999,3129,0,-.189E-5,0
SBIRS GEO-3 (USA 282),2018-009A,2026-06-17T10:57:04.365792,1.00271532,.00018431,2.1843,12.1363,65.3199,193.1190,0,U,43162,999,3084,0,.123E-5,0
AL YAH 3,2018-012A,2026-06-16T18:03:11.549664,1.00269871,.00038747,1.5513,83.1113,0.7305,71.8540,0,U,43174,999,3084,0,-.159E-5,0
SES-14,2018-012B,2026-06-16T17:55:19.803936,1.00269888,.00008096,0.0216,33.3553,49.1617,43.8189,0,U,43175,999,702,0,-.281E-5,0
GOES 17,2018-022A,2026-06-16T22:51:18.123840,1.00269717,.00004239,0.9372,85.7144,32.6375,40.1765,0,U,43226,999,3042,0,-.186E-5,0
HISPASAT 30W-6,2018-023A,2026-06-16T18:00:19.325088,1.00269755,.00056852,0.0464,45.0638,25.5389,74.4852,0,U,43228,999,3040,0,-.219E-5,0
SUPERBIRD-B3,2018-033A,2026-06-17T10:04:38.591040,1.00271576,.0000933,0.0160,0.5565,79.9638,138.3195,0,U,43271,999,3006,0,-.97E-6,0
HYLAS 4,2018-033B,2026-06-16T23:07:18.865920,1.00267492,.00011778,0.0157,26.2092,66.6667,125.6670,0,U,43272,999,3006,0,-.237E-5,0
IRNSS-1I,2018-035A,2026-06-15T20:09:20.172384,1.00272046,.00178117,28.7520,74.2167,181.5598,5.5147,0,U,43286,999,3006,0,.62E-6,0
USA 283,2018-036A,2026-06-15T11:59:15.199008,1.00267801,.0000468,0.0182,1.8047,172.3670,43.5385,0,U,43339,999,2527,0,0,0
COSMOS 2526,2018-037A,2026-06-16T20:28:00.019200,1.00270287,.00005212,0.0301,74.6789,134.9835,130.5176,0,U,43432,999,2995,0,-.347E-5,0
APSTAR-6C,2018-041A,2026-06-17T15:51:02.447136,1.00268739,.0000923,0.0264,17.2344,325.3528,295.0733,0,U,43450,999,2981,0,-.323E-5,0
BANGABANDHUSAT-1,2018-044A,2026-06-16T18:25:36.827904,1.00269974,.00016263,0.0240,77.0295,4.9700,218.5323,0,U,43463,999,2970,0,-.365E-5,0
SES-12,2018-049A,2026-06-17T15:27:37.837152,1.00268123,.00007299,0.0185,26.5099,255.1850,311.0984,0,U,43488,999,2942,0,-.274E-5,0
FENGYUN 2H,2018-050A,2026-06-16T18:31:28.990848,1.00269582,.00019828,3.0297,79.0759,138.6061,44.6323,0,U,43491,999,2943,0,-.134E-5,0
BEIDOU-2 IGSO-7,2018-057A,2026-06-15T22:07:43.170816,1.00251416,.01050678,55.1938,163.0687,238.0100,305.1025,0,U,43539,999,2911,0,-.27E-6,0
TELSTAR 19V,2018-059A,2026-06-17T11:40:38.561952,1.00269474,.00024464,0.0186,169.5740,306.2270,262.0928,0,U,43562,999,2914,0,-.284E-5,0
TELKOM 4 (MERAH PUTIH),2018-064A,2026-06-16T20:22:15.569184,1.00270495,.0001234,0.0170,313.5376,165.5776,199.5551,0,U,43587,999,2887,0,-.347E-5,0
TELSTAR 18V,2018-069A,2026-06-16T20:30:52.243776,1.00270418,.00017672,0.0163,299.3195,134.3157,277.1900,0,U,43611,999,2863,0,-.297E-5,0
AZERSPACE 2 (IS-38),2018-074A,2026-06-16T18:21:44.924256,1.00270536,.00012305,0.0176,5.0049,81.7615,138.8031,0,U,43632,999,2844,0,.134E-5,0
